[{"OBJECT_NAME":"STARLINK-32010","OBJECT_ID":"2024-132B","EPOCH":"2026-03-09T22:21:18.698688","MEAN_MOTION":15.30183516,"ECCENTRICITY":0.00014181,"INCLINATION":53.1617,"RA_OF_ASC_NODE":51.5778,"ARG_OF_PERICENTER":94.2142,"MEAN_ANOMALY":265.902,"EPHEMERIS_TYPE":0,"CLASSIFICATION_TYPE":"U","NORAD_CAT_ID":60279,"ELEMENT_SET_NO":999,"REV_AT_EPOCH":9159,"BSTAR":1.6771462e-5,"MEAN_MOTION_DOT":1.37e-6,"MEAN_MOTION_DDOT":0},{"OBJECT_NAME":"OBJECT N","OBJECT_ID":"2019-093N","EPOCH":"2026-03-09T21:41:56.087232","MEAN_MOTION":15.29897693,"ECCENTRICITY":0.0006278,"INCLINATION":98.0505,"RA_OF_ASC_NODE":226.9456,"ARG_OF_PERICENTER":33.3806,"MEAN_ANOMALY":326.7828,"EPHEMERIS_TYPE":0,"CLASSIFICATION_TYPE":"U","NORAD_CAT_ID":44891,"ELEMENT_SET_NO":999,"REV_AT_EPOCH":33957,"BSTAR":0.0010567776,"MEAN_MOTION_DOT":0.00030617,"MEAN_MOTION_DDOT":0}]
